LANDSAT 9               
1 49260U 21088A   24003.19714614  .00000484  00000+0  11737-3 0  9999
2 49260  98.2090  75.4672 0001080  92.1768 267.9555 14.57126539120515
